{
  "type": "FeatureCollection",
  "features": [
    {
      "type": "Feature",
      "properties": {
        "norad_id": 35902,
        "name": "COSMOS 2251 DEB",
        "group": "cosmos-2251-debris",
        "lat": 35.3752912109976,
        "lon": -112.05631538232737,
        "alt_km": 748.145408193539,
        "timestamp": "2025-12-11T20:41:15.477858+00:00",
        "meta_object_name": "COSMOS 2251 DEB",
        "meta_object_id": "1993-036AUR",
        "meta_epoch": "2025-12-10T09:10:56.598528",
        "meta_mean_motion": 14.26883589,
        "meta_eccentricity": 0.01019996,
        "meta_inclination": 73.9827,
        "meta_ra_of_asc_node": 238.8593,
        "meta_arg_of_pericenter": 354.0936,
        "meta_mean_anomaly": 5.8999,
        "meta_ephemeris_type": 0,
        "meta_classification_type": "U",
        "meta_norad_cat_id": 35902,
        "meta_element_set_no": 999,
        "meta_rev_at_epoch": 61096,
        "meta_bstar": 0.0017323625,
        "meta_mean_motion_dot": 4.42e-05,
        "meta_mean_motion_ddot": 0,
        "tle_line1": "1 35902U 93036AUR 25344.38259952  .00004420  00000+0  17324-2 0  9999",
        "tle_line2": "2 35902  73.9827 238.8593 0101999 354.0936   5.8999 14.26883589610960"
      },
      "geometry": {
        "type": "Point",
        "coordinates": [
          -112.05631538232737,
          35.3752912109976
        ]
      }
    },
    {
      "type": "Feature",
      "properties": {
        "norad_id": 35905,
        "name": "COSMOS 2251 DEB",
        "group": "cosmos-2251-debris",
        "lat": 55.17814694463056,
        "lon": 8.285633888906078,
        "alt_km": 626.7799070755673,
        "timestamp": "2025-12-11T20:41:15.477868+00:00",
        "meta_object_name": "COSMOS 2251 DEB",
        "meta_object_id": "1993-036AUU",
        "meta_epoch": "2025-12-11T08:55:52.650624",
        "meta_mean_motion": 14.98993139,
        "meta_eccentricity": 0.00908105,
        "meta_inclination": 74.0316,
        "meta_ra_of_asc_node": 213.5888,
        "meta_arg_of_pericenter": 293.9806,
        "meta_mean_anomaly": 65.1892,
        "meta_ephemeris_type": 0,
        "meta_classification_type": "U",
        "meta_norad_cat_id": 35905,
        "meta_element_set_no": 999,
        "meta_rev_at_epoch": 88562,
        "meta_bstar": 0.0009939745,
        "meta_mean_motion_dot": 0.00013108,
        "meta_mean_motion_ddot": 0,
        "tle_line1": "1 35905U 93036AUU 25345.37213716  .00013108  00000+0  99397-3 0  9994",
        "tle_line2": "2 35905  74.0316 213.5888 0090810 293.9806  65.1892 14.98993139885621"
      },
      "geometry": {
        "type": "Point",
        "coordinates": [
          8.285633888906078,
          55.17814694463056
        ]
      }
    },
    {
      "type": "Feature",
      "properties": {
        "norad_id": 35959,
        "name": "COSMOS 2251 DEB",
        "group": "cosmos-2251-debris",
        "lat": 71.99857709616678,
        "lon": 71.89352504822905,
        "alt_km": 763.8704585708765,
        "timestamp": "2025-12-11T20:41:15.477878+00:00",
        "meta_object_name": "COSMOS 2251 DEB",
        "meta_object_id": "1993-036AUZ",
        "meta_epoch": "2025-12-10T15:46:18.097824",
        "meta_mean_motion": 14.34133679,
        "meta_eccentricity": 0.00214667,
        "meta_inclination": 74.0324,
        "meta_ra_of_asc_node": 315.8763,
        "meta_arg_of_pericenter": 36.9874,
        "meta_mean_anomaly": 323.2753,
        "meta_ephemeris_type": 0,
        "meta_classification_type": "U",
        "meta_norad_cat_id": 35959,
        "meta_element_set_no": 999,
        "meta_rev_at_epoch": 84898,
        "meta_bstar": 0.00020861744,
        "meta_mean_motion_dot": 5.59e-06,
        "meta_mean_motion_ddot": 0,
        "tle_line1": "1 35959U 93036AUZ 25344.65715391  .00000559  00000+0  20862-3 0  9996",
        "tle_line2": "2 35959  74.0324 315.8763 0021466  36.9874 323.2753 14.34133679848985"
      },
      "geometry": {
        "type": "Point",
        "coordinates": [
          71.89352504822905,
          71.99857709616678
        ]
      }
    },
    {
      "type": "Feature",
      "properties": {
        "norad_id": 35961,
        "name": "COSMOS 2251 DEB",
        "group": "cosmos-2251-debris",
        "lat": 56.67680959136275,
        "lon": -0.2925915034335328,
        "alt_km": 738.0437593742972,
        "timestamp": "2025-12-11T20:41:15.477887+00:00",
        "meta_object_name": "COSMOS 2251 DEB",
        "meta_object_id": "1993-036AVB",
        "meta_epoch": "2025-12-11T08:09:55.723392",
        "meta_mean_motion": 14.05375805,
        "meta_eccentricity": 0.01919806,
        "meta_inclination": 73.9248,
        "meta_ra_of_asc_node": 206.6381,
        "meta_arg_of_pericenter": 140.2943,
        "meta_mean_anomaly": 221.2432,
        "meta_ephemeris_type": 0,
        "meta_classification_type": "U",
        "meta_norad_cat_id": 35961,
        "meta_element_set_no": 999,
        "meta_rev_at_epoch": 62662,
        "meta_bstar": 0.0012047143,
        "meta_mean_motion_dot": 2.281e-05,
        "meta_mean_motion_ddot": 0,
        "tle_line1": "1 35961U 93036AVB 25345.34022828  .00002281  00000+0  12047-2 0  9991",
        "tle_line2": "2 35961  73.9248 206.6381 0191980 140.2943 221.2432 14.05375805626622"
      },
      "geometry": {
        "type": "Point",
        "coordinates": [
          -0.2925915034335328,
          56.67680959136275
        ]
      }
    },
    {
      "type": "Feature",
      "properties": {
        "norad_id": 35979,
        "name": "COSMOS 2251 DEB",
        "group": "cosmos-2251-debris",
        "lat": 28.02178819169903,
        "lon": 51.325522509051595,
        "alt_km": 675.5012552701046,
        "timestamp": "2025-12-11T20:41:15.477897+00:00",
        "meta_object_name": "COSMOS 2251 DEB",
        "meta_object_id": "1993-036AVV",
        "meta_epoch": "2025-12-09T11:50:03.223968",
        "meta_mean_motion": 14.74576302,
        "meta_eccentricity": 0.00588204,
        "meta_inclination": 74.0104,
        "meta_ra_of_asc_node": 244.7352,
        "meta_arg_of_pericenter": 17.6471,
        "meta_mean_anomaly": 162.3797,
        "meta_ephemeris_type": 0,
        "meta_classification_type": "U",
        "meta_norad_cat_id": 35979,
        "meta_element_set_no": 999,
        "meta_rev_at_epoch": 88585,
        "meta_bstar": 0.0014101379,
        "meta_mean_motion_dot": 9.639e-05,
        "meta_mean_motion_ddot": 0,
        "tle_line1": "1 35979U 93036AVV 25343.49309287  .00009639  00000+0  14101-2 0  9998",
        "tle_line2": "2 35979  74.0104 244.7352 0058820  17.6471 162.3797 14.74576302885855"
      },
      "geometry": {
        "type": "Point",
        "coordinates": [
          51.325522509051595,
          28.02178819169903
        ]
      }
    },
    {
      "type": "Feature",
      "properties": {
        "norad_id": 35980,
        "name": "COSMOS 2251 DEB",
        "group": "cosmos-2251-debris",
        "lat": 68.9903013764814,
        "lon": 173.0979692234214,
        "alt_km": 726.5332644320515,
        "timestamp": "2025-12-11T20:41:15.477907+00:00",
        "meta_object_name": "COSMOS 2251 DEB",
        "meta_object_id": "1993-036AVW",
        "meta_epoch": "2025-12-02T19:08:08.015136",
        "meta_mean_motion": 14.59062146,
        "meta_eccentricity": 0.00537712,
        "meta_inclination": 73.91,
        "meta_ra_of_asc_node": 141.7735,
        "meta_arg_of_pericenter": 277.5645,
        "meta_mean_anomaly": 81.9413,
        "meta_ephemeris_type": 0,
        "meta_classification_type": "U",
        "meta_norad_cat_id": 35980,
        "meta_element_set_no": 999,
        "meta_rev_at_epoch": 61341,
        "meta_bstar": 0.002036555,
        "meta_mean_motion_dot": 9.752e-05,
        "meta_mean_motion_ddot": 0,
        "tle_line1": "1 35980U 93036AVW 25336.79731499  .00009752  00000+0  20366-2 0  9995",
        "tle_line2": "2 35980  73.9100 141.7735 0053771 277.5645  81.9413 14.59062146613413"
      },
      "geometry": {
        "type": "Point",
        "coordinates": [
          173.0979692234214,
          68.9903013764814
        ]
      }
    },
    {
      "type": "Feature",
      "properties": {
        "norad_id": 35982,
        "name": "COSMOS 2251 DEB",
        "group": "cosmos-2251-debris",
        "lat": -10.284902256897437,
        "lon": -14.362488289772942,
        "alt_km": 669.448833268496,
        "timestamp": "2025-12-11T20:41:15.477917+00:00",
        "meta_object_name": "COSMOS 2251 DEB",
        "meta_object_id": "1993-036AVY",
        "meta_epoch": "2025-12-10T10:15:57.560256",
        "meta_mean_motion": 14.62729028,
        "meta_eccentricity": 0.00640782,
        "meta_inclination": 74.0584,
        "meta_ra_of_asc_node": 351.3546,
        "meta_arg_of_pericenter": 58.3661,
        "meta_mean_anomaly": 302.3736,
        "meta_ephemeris_type": 0,
        "meta_classification_type": "U",
        "meta_norad_cat_id": 35982,
        "meta_element_set_no": 999,
        "meta_rev_at_epoch": 86132,
        "meta_bstar": 0.00082067194,
        "meta_mean_motion_dot": 4.278e-05,
        "meta_mean_motion_ddot": 0,
        "tle_line1": "1 35982U 93036AVY 25344.42774954  .00004278  00000+0  82067-3 0  9994",
        "tle_line2": "2 35982  74.0584 351.3546 0064078  58.3661 302.3736 14.62729028861323"
      },
      "geometry": {
        "type": "Point",
        "coordinates": [
          -14.362488289772942,
          -10.284902256897437
        ]
      }
    }
  ]
}